[
    {
        "Altitude(m)": 704021.7164549399,
        "Argument of Periapsis(deg)": 0.006834072711976239,
        "Eccentricity": 0.0,
        "Inclination(deg)": 45.0,
        "Latitude(deg)": 28.435386446178793,
        "Longitude(deg)": 116.96070321997196,
        "Mean Anomaly(deg)": 137.8290299884885,
        "RAAN(deg)": 69.99354883512507,
        "Satellite Name": "Constellation 1 316",
        "Satellite Number": 316,
        "Semi-Major Axis(m)": 7083131.272910544,
        "Time(s)": 114
    },
    {
        "Altitude(m)": 704016.2135908246,
        "Argument of Periapsis(deg)": 0.006894020718221645,
        "Eccentricity": 0.0,
        "Inclination(deg)": 45.0,
        "Latitude(deg)": 28.399029314141014,
        "Longitude(deg)": 117.01193504298148,
        "Mean Anomaly(deg)": 137.8897311287384,
        "RAAN(deg)": 69.99349224595952,
        "Satellite Name": "Constellation 1 316",
        "Satellite Number": 316,
        "Semi-Major Axis(m)": 7083131.272910544,
        "Time(s)": 115
    },
    {
        "Altitude(m)": 704010.7167884038,
        "Argument of Periapsis(deg)": 0.006953968724467052,
        "Eccentricity": 0.0,
        "Inclination(deg)": 45.0,
        "Latitude(deg)": 28.362649533929645,
        "Longitude(deg)": 117.06312910993037,
        "Mean Anomaly(deg)": 137.95043226898827,
        "RAAN(deg)": 69.99343565679393,
        "Satellite Name": "Constellation 1 316",
        "Satellite Number": 316,
        "Semi-Major Axis(m)": 7083131.272910544,
        "Time(s)": 116
    },
    {
        "Altitude(m)": 704005.2260865938,
        "Argument of Periapsis(deg)": 0.007013916730712457,
        "Eccentricity": 0.0,
        "Inclination(deg)": 45.0,
        "Latitude(deg)": 28.326247154701935,
        "Longitude(deg)": 117.11428548044394,
        "Mean Anomaly(deg)": 138.0111334092382,
        "RAAN(deg)": 69.99337906762837,
        "Satellite Name": "Constellation 1 316",
        "Satellite Number": 316,
        "Semi-Major Axis(m)": 7083131.272910544,
        "Time(s)": 117
    },
    {
        "Altitude(m)": 703999.7415242937,
        "Argument of Periapsis(deg)": 0.007073864736957864,
        "Eccentricity": 0.0,
        "Inclination(deg)": 45.0,
        "Latitude(deg)": 28.289822225544434,
        "Longitude(deg)": 117.16540421417837,
        "Mean Anomaly(deg)": 138.0718345494881,
        "RAAN(deg)": 69.99332247846279,
        "Satellite Name": "Constellation 1 316",
        "Satellite Number": 316,
        "Semi-Major Axis(m)": 7083131.272910544,
        "Time(s)": 118
    },
    {
        "Altitude(m)": 703994.2631403888,
        "Argument of Periapsis(deg)": 0.0071338127432032696,
        "Eccentricity": 0.0,
        "Inclination(deg)": 45.0,
        "Latitude(deg)": 28.253374795473295,
        "Longitude(deg)": 117.21648520272295,
        "Mean Anomaly(deg)": 138.13253568973803,
        "RAAN(deg)": 69.99326588929723,
        "Satellite Name": "Constellation 1 316",
        "Satellite Number": 316,
        "Semi-Major Axis(m)": 7083131.272910544,
        "Time(s)": 119
    },
    {
        "Altitude(m)": 703988.7909737484,
        "Argument of Periapsis(deg)": 0.007193760749448674,
        "Eccentricity": 0.0,
        "Inclination(deg)": 45.0,
        "Latitude(deg)": 28.21690491343384,
        "Longitude(deg)": 117.26752884198842,
        "Mean Anomaly(deg)": 138.19323682998788,
        "RAAN(deg)": 69.99320930013167,
        "Satellite Name": "Constellation 1 316",
        "Satellite Number": 316,
        "Semi-Major Axis(m)": 7083131.272910544,
        "Time(s)": 120
    },
    {
        "Altitude(m)": 703983.3250632285,
        "Argument of Periapsis(deg)": 0.007253708755694079,
        "Eccentricity": 0.0,
        "Inclination(deg)": 45.0,
        "Latitude(deg)": 28.180412628301326,
        "Longitude(deg)": 117.31853502362314,
        "Mean Anomaly(deg)": 138.25393797023779,
        "RAAN(deg)": 69.99315271096609,
        "Satellite Name": "Constellation 1 316",
        "Satellite Number": 316,
        "Semi-Major Axis(m)": 7083131.272910544,
        "Time(s)": 121
    },
    {
        "Altitude(m)": 703977.865447674,
        "Argument of Periapsis(deg)": 0.0073136567619394854,
        "Eccentricity": 0.0,
        "Inclination(deg)": 45.0,
        "Latitude(deg)": 28.143897988880617,
        "Longitude(deg)": 117.36950380740143,
        "Mean Anomaly(deg)": 138.3146391104877,
        "RAAN(deg)": 69.99309612180052,
        "Satellite Name": "Constellation 1 316",
        "Satellite Number": 316,
        "Semi-Major Axis(m)": 7083131.272910544,
        "Time(s)": 122
    },
    {
        "Altitude(m)": 703972.4121659137,
        "Argument of Periapsis(deg)": 0.0073736047681848904,
        "Eccentricity": 0.0,
        "Inclination(deg)": 45.0,
        "Latitude(deg)": 28.107361043906195,
        "Longitude(deg)": 117.42043525312589,
        "Mean Anomaly(deg)": 138.3753402507376,
        "RAAN(deg)": 69.99303953263495,
        "Satellite Name": "Constellation 1 316",
        "Satellite Number": 316,
        "Semi-Major Axis(m)": 7083131.272910544,
        "Time(s)": 123
    },
    {
        "Altitude(m)": 703966.9652567564,
        "Argument of Periapsis(deg)": 0.007433552774430298,
        "Eccentricity": 0.0,
        "Inclination(deg)": 45.0,
        "Latitude(deg)": 28.070801842042492,
        "Longitude(deg)": 117.47132942062669,
        "Mean Anomaly(deg)": 138.43604139098744,
        "RAAN(deg)": 69.99298294346937,
        "Satellite Name": "Constellation 1 316",
        "Satellite Number": 316,
        "Semi-Major Axis(m)": 7083131.272910544,
        "Time(s)": 124
    },
    {
        "Altitude(m)": 703961.5247590082,
        "Argument of Periapsis(deg)": 0.007493500780675703,
        "Eccentricity": 0.0,
        "Inclination(deg)": 45.0,
        "Latitude(deg)": 28.034220431883575,
        "Longitude(deg)": 117.5221863697614,
        "Mean Anomaly(deg)": 138.4967425312374,
        "RAAN(deg)": 69.9929263543038,
        "Satellite Name": "Constellation 1 316",
        "Satellite Number": 316,
        "Semi-Major Axis(m)": 7083131.272910544,
        "Time(s)": 125
    },
    {
        "Altitude(m)": 703956.0907114468,
        "Argument of Periapsis(deg)": 0.007553448786921108,
        "Eccentricity": 0.0,
        "Inclination(deg)": 45.0,
        "Latitude(deg)": 27.997616861953773,
        "Longitude(deg)": 117.57300599231698,
        "Mean Anomaly(deg)": 138.55744367148728,
        "RAAN(deg)": 69.99286976513822,
        "Satellite Name": "Constellation 1 316",
        "Satellite Number": 316,
        "Semi-Major Axis(m)": 7083131.272910544,
        "Time(s)": 126
    },
    {
        "Altitude(m)": 703950.6631528416,
        "Argument of Periapsis(deg)": 0.007613396793166514,
        "Eccentricity": 0.0,
        "Inclination(deg)": 45.0,
        "Latitude(deg)": 27.96099118070696,
        "Longitude(deg)": 117.62378868439825,
        "Mean Anomaly(deg)": 138.61814481173715,
        "RAAN(deg)": 69.99281317597267,
        "Satellite Name": "Constellation 1 316",
        "Satellite Number": 316,
        "Semi-Major Axis(m)": 7083131.272910544,
        "Time(s)": 127
    },
    {
        "Altitude(m)": 703945.2421219429,
        "Argument of Periapsis(deg)": 0.007673344799411918,
        "Eccentricity": 0.0,
        "Inclination(deg)": 45.0,
        "Latitude(deg)": 27.92434343652747,
        "Longitude(deg)": 117.67453433784398,
        "Mean Anomaly(deg)": 138.67884595198709,
        "RAAN(deg)": 69.9927565868071,
        "Satellite Name": "Constellation 1 316",
        "Satellite Number": 316,
        "Semi-Major Axis(m)": 7083131.272910544,
        "Time(s)": 128
    },
    {
        "Altitude(m)": 703939.8276574973,
        "Argument of Periapsis(deg)": 0.007733292805657325,
        "Eccentricity": 0.0,
        "Inclination(deg)": 45.0,
        "Latitude(deg)": 27.88767367772959,
        "Longitude(deg)": 117.72524301261556,
        "Mean Anomaly(deg)": 138.739547092237,
        "RAAN(deg)": 69.99269999764152,
        "Satellite Name": "Constellation 1 316",
        "Satellite Number": 316,
        "Semi-Major Axis(m)": 7083131.272910544,
        "Time(s)": 129
    },
    {
        "Altitude(m)": 703934.4197982134,
        "Argument of Periapsis(deg)": 0.00779324081190273,
        "Eccentricity": 0.0,
        "Inclination(deg)": 45.0,
        "Latitude(deg)": 27.85098195255793,
        "Longitude(deg)": 117.77591476869898,
        "Mean Anomaly(deg)": 138.8002482324869,
        "RAAN(deg)": 69.99264340847596,
        "Satellite Name": "Constellation 1 316",
        "Satellite Number": 316,
        "Semi-Major Axis(m)": 7083131.272910544,
        "Time(s)": 130
    },
    {
        "Altitude(m)": 703929.0185828033,
        "Argument of Periapsis(deg)": 0.007853188818148135,
        "Eccentricity": 0.0,
        "Inclination(deg)": 45.0,
        "Latitude(deg)": 27.81426830918723,
        "Longitude(deg)": 117.8265496661044,
        "Mean Anomaly(deg)": 138.8609493727368,
        "RAAN(deg)": 69.99258681931039,
        "Satellite Name": "Constellation 1 316",
        "Satellite Number": 316,
        "Semi-Major Axis(m)": 7083131.272910544,
        "Time(s)": 131
    },
    {
        "Altitude(m)": 703923.62404995,
        "Argument of Periapsis(deg)": 0.007913136824393542,
        "Eccentricity": 0.0,
        "Inclination(deg)": 45.0,
        "Latitude(deg)": 27.77753279572274,
        "Longitude(deg)": 117.87714776486568,
        "Mean Anomaly(deg)": 138.9216505129867,
        "RAAN(deg)": 69.99253023014482,
        "Satellite Name": "Constellation 1 316",
        "Satellite Number": 316,
        "Semi-Major Axis(m)": 7083131.272910544,
        "Time(s)": 132
    }
]